[{"OBJECT_NAME":"STARLINK-36842","OBJECT_ID":"2026-035F","EPOCH":"2026-03-04T20:00:03.000384","MEAN_MOTION":15.98395362,"ECCENTRICITY":0.0001122,"INCLINATION":97.276,"RA_OF_ASC_NODE":355.7987,"ARG_OF_PERICENTER":90.4624,"MEAN_ANOMALY":0.1652,"EPHEMERIS_TYPE":0,"CLASSIFICATION_TYPE":"U","NORAD_CAT_ID":67884,"ELEMENT_SET_NO":999,"REV_AT_EPOCH":297,"BSTAR":-0.0021451,"MEAN_MOTION_DOT":-0.00990566,"MEAN_MOTION_DDOT":0.00031636},{"OBJECT_NAME":"STARLINK-36826","OBJECT_ID":"2026-035G","EPOCH":"2026-03-04T20:00:03.000384","MEAN_MOTION":15.98502682,"ECCENTRICITY":0.0001067,"INCLINATION":97.2759,"RA_OF_ASC_NODE":355.7998,"ARG_OF_PERICENTER":91.0095,"MEAN_ANOMALY":2.3784,"EPHEMERIS_TYPE":0,"CLASSIFICATION_TYPE":"U","NORAD_CAT_ID":67885,"ELEMENT_SET_NO":999,"REV_AT_EPOCH":297,"BSTAR":-0.0021807,"MEAN_MOTION_DOT":-0.01012802,"MEAN_MOTION_DDOT":0.00033005},{"OBJECT_NAME":"STARLINK-36390","OBJECT_ID":"2026-035H","EPOCH":"2026-03-04T20:00:03.000384","MEAN_MOTION":15.98588139,"ECCENTRICITY":0.0001108,"INCLINATION":97.2756,"RA_OF_ASC_NODE":355.8015,"ARG_OF_PERICENTER":79.7614,"MEAN_ANOMALY":17.8361,"EPHEMERIS_TYPE":0,"CLASSIFICATION_TYPE":"U","NORAD_CAT_ID":67886,"ELEMENT_SET_NO":999,"REV_AT_EPOCH":302,"BSTAR":-0.0021881,"MEAN_MOTION_DOT":-0.01021051,"MEAN_MOTION_DDOT":0.00033537},{"OBJECT_NAME":"STARLINK-36368","OBJECT_ID":"2026-035J","EPOCH":"2026-03-04T20:00:03.000384","MEAN_MOTION":15.98678852,"ECCENTRICITY":0.0001362,"INCLINATION":97.2753,"RA_OF_ASC_NODE":355.8031,"ARG_OF_PERICENTER":105.4541,"MEAN_ANOMALY":356.1426,"EPHEMERIS_TYPE":0,"CLASSIFICATION_TYPE":"U","NORAD_CAT_ID":67887,"ELEMENT_SET_NO":999,"REV_AT_EPOCH":297,"BSTAR":-0.0021809,"MEAN_MOTION_DOT":-0.01022826,"MEAN_MOTION_DDOT":0.00033678},{"OBJECT_NAME":"STARLINK-36801","OBJECT_ID":"2026-035K","EPOCH":"2026-03-04T13:33:11.871936","MEAN_MOTION":15.99766047,"ECCENTRICITY":0.0001667,"INCLINATION":97.2754,"RA_OF_ASC_NODE":355.5126,"ARG_OF_PERICENTER":199.141,"MEAN_ANOMALY":160.9806,"EPHEMERIS_TYPE":0,"CLASSIFICATION_TYPE":"U","NORAD_CAT_ID":67888,"ELEMENT_SET_NO":999,"REV_AT_EPOCH":302,"BSTAR":0.00032952,"MEAN_MOTION_DOT":0.00164154,"MEAN_MOTION_DDOT":1.3111e-5},{"OBJECT_NAME":"STARLINK-36372","OBJECT_ID":"2026-035L","EPOCH":"2026-03-04T13:31:23.673216","MEAN_MOTION":15.99926499,"ECCENTRICITY":0.0001492,"INCLINATION":97.2749,"RA_OF_ASC_NODE":355.5139,"ARG_OF_PERICENTER":181.2808,"MEAN_ANOMALY":178.8467,"EPHEMERIS_TYPE":0,"CLASSIFICATION_TYPE":"U","NORAD_CAT_ID":67889,"ELEMENT_SET_NO":999,"REV_AT_EPOCH":302,"BSTAR":0.00025259,"MEAN_MOTION_DOT":0.00126822,"MEAN_MOTION_DDOT":8.7112e-6},{"OBJECT_NAME":"STARLINK-36363","OBJECT_ID":"2026-035M","EPOCH":"2026-03-04T18:02:26.174112","MEAN_MOTION":15.99534431,"ECCENTRICITY":0.0002609,"INCLINATION":97.2751,"RA_OF_ASC_NODE":355.7171,"ARG_OF_PERICENTER":141.4078,"MEAN_ANOMALY":218.7387,"EPHEMERIS_TYPE":0,"CLASSIFICATION_TYPE":"U","NORAD_CAT_ID":67890,"ELEMENT_SET_NO":999,"REV_AT_EPOCH":305,"BSTAR":0.00037708,"MEAN_MOTION_DOT":0.00185534,"MEAN_MOTION_DDOT":1.613e-5},{"OBJECT_NAME":"STARLINK-36816","OBJECT_ID":"2026-035N","EPOCH":"2026-03-04T19:17:52.964736","MEAN_MOTION":16.01114946,"ECCENTRICITY":0.0008784,"INCLINATION":97.2728,"RA_OF_ASC_NODE":355.7956,"ARG_OF_PERICENTER":178.607,"MEAN_ANOMALY":181.5235,"EPHEMERIS_TYPE":0,"CLASSIFICATION_TYPE":"U","NORAD_CAT_ID":67891,"ELEMENT_SET_NO":999,"REV_AT_EPOCH":306,"BSTAR":0.0011135,"MEAN_MOTION_DOT":0.00602052,"MEAN_MOTION_DDOT":0.00016613},{"OBJECT_NAME":"STARLINK-36813","OBJECT_ID":"2026-035P","EPOCH":"2026-03-04T16:23:59.242848","MEAN_MOTION":16.00321198,"ECCENTRICITY":0.0001279,"INCLINATION":97.2736,"RA_OF_ASC_NODE":355.6556,"ARG_OF_PERICENTER":106.0282,"MEAN_ANOMALY":254.1137,"EPHEMERIS_TYPE":0,"CLASSIFICATION_TYPE":"U","NORAD_CAT_ID":67892,"ELEMENT_SET_NO":999,"REV_AT_EPOCH":304,"BSTAR":-0.00027796,"MEAN_MOTION_DOT":-0.0014422,"MEAN_MOTION_DDOT":1.0027e-5},{"OBJECT_NAME":"STARLINK-36803","OBJECT_ID":"2026-035Q","EPOCH":"2026-03-04T16:30:26.703648","MEAN_MOTION":15.99686625,"ECCENTRICITY":0.0001556,"INCLINATION":97.2751,"RA_OF_ASC_NODE":355.6514,"ARG_OF_PERICENTER":118.595,"MEAN_ANOMALY":241.5485,"EPHEMERIS_TYPE":0,"CLASSIFICATION_TYPE":"U","NORAD_CAT_ID":67893,"ELEMENT_SET_NO":999,"REV_AT_EPOCH":304,"BSTAR":-0.00028818,"MEAN_MOTION_DOT":-0.00144253,"MEAN_MOTION_DDOT":9.9647e-6},{"OBJECT_NAME":"STARLINK-36846","OBJECT_ID":"2026-035R","EPOCH":"2026-03-04T16:28:06.411648","MEAN_MOTION":15.99901887,"ECCENTRICITY":0.0001499,"INCLINATION":97.2747,"RA_OF_ASC_NODE":355.6537,"ARG_OF_PERICENTER":123.3737,"MEAN_ANOMALY":236.7685,"EPHEMERIS_TYPE":0,"CLASSIFICATION_TYPE":"U","NORAD_CAT_ID":67894,"ELEMENT_SET_NO":999,"REV_AT_EPOCH":304,"BSTAR":-0.00027117,"MEAN_MOTION_DOT":-0.00137431,"MEAN_MOTION_DDOT":9.2778e-6},{"OBJECT_NAME":"STARLINK-36866","OBJECT_ID":"2026-035S","EPOCH":"2026-03-04T16:27:05.317344","MEAN_MOTION":16.00011824,"ECCENTRICITY":0.0001106,"INCLINATION":97.2748,"RA_OF_ASC_NODE":355.6539,"ARG_OF_PERICENTER":133.471,"MEAN_ANOMALY":226.6661,"EPHEMERIS_TYPE":0,"CLASSIFICATION_TYPE":"U","NORAD_CAT_ID":67895,"ELEMENT_SET_NO":999,"REV_AT_EPOCH":304,"BSTAR":-0.00024823,"MEAN_MOTION_DOT":-0.00126643,"MEAN_MOTION_DDOT":8.2337e-6},{"OBJECT_NAME":"STARLINK-36877","OBJECT_ID":"2026-035T","EPOCH":"2026-03-04T16:29:13.752672","MEAN_MOTION":15.99796314,"ECCENTRICITY":0.000154,"INCLINATION":97.2748,"RA_OF_ASC_NODE":355.6525,"ARG_OF_PERICENTER":117.7059,"MEAN_ANOMALY":242.4375,"EPHEMERIS_TYPE":0,"CLASSIFICATION_TYPE":"U","NORAD_CAT_ID":67896,"ELEMENT_SET_NO":999,"REV_AT_EPOCH":304,"BSTAR":-0.00027302,"MEAN_MOTION_DOT":-0.00137544,"MEAN_MOTION_DDOT":9.2794e-6},{"OBJECT_NAME":"STARLINK-36870","OBJECT_ID":"2026-035U","EPOCH":"2026-03-04T13:25:47.799264","MEAN_MOTION":16.00269203,"ECCENTRICITY":8.91e-5,"INCLINATION":97.276,"RA_OF_ASC_NODE":355.518,"ARG_OF_PERICENTER":38.1993,"MEAN_ANOMALY":321.9349,"EPHEMERIS_TYPE":0,"CLASSIFICATION_TYPE":"U","NORAD_CAT_ID":67897,"ELEMENT_SET_NO":999,"REV_AT_EPOCH":302,"BSTAR":-0.00051056,"MEAN_MOTION_DOT":-0.00263452,"MEAN_MOTION_DDOT":2.7714e-5},{"OBJECT_NAME":"STARLINK-36810","OBJECT_ID":"2026-035V","EPOCH":"2026-03-04T17:55:04.592352","MEAN_MOTION":16.00409377,"ECCENTRICITY":0.0003862,"INCLINATION":97.2744,"RA_OF_ASC_NODE":355.7232,"ARG_OF_PERICENTER":144.1641,"MEAN_ANOMALY":215.9897,"EPHEMERIS_TYPE":0,"CLASSIFICATION_TYPE":"U","NORAD_CAT_ID":67898,"ELEMENT_SET_NO":999,"REV_AT_EPOCH":305,"BSTAR":0.0010901,"MEAN_MOTION_DOT":0.00564158,"MEAN_MOTION_DDOT":0.00014331},{"OBJECT_NAME":"STARLINK-36878","OBJECT_ID":"2026-035W","EPOCH":"2026-03-04T13:23:02.389920","MEAN_MOTION":16.00563329,"ECCENTRICITY":9.58e-5,"INCLINATION":97.2744,"RA_OF_ASC_NODE":355.5215,"ARG_OF_PERICENTER":102.8484,"MEAN_ANOMALY":257.2902,"EPHEMERIS_TYPE":0,"CLASSIFICATION_TYPE":"U","NORAD_CAT_ID":67899,"ELEMENT_SET_NO":999,"REV_AT_EPOCH":302,"BSTAR":-0.00062158,"MEAN_MOTION_DOT":-0.00325919,"MEAN_MOTION_DDOT":4.0946e-5}]
