STARLINK-36842          
1 67884U 26035F   26063.83336806 -.00990566  31636-3 -21451-2 0  9997
2 67884  97.2760 355.7987 0001122  90.4624   0.1652 15.98395362  2974
STARLINK-36826          
1 67885U 26035G   26063.83336806 -.01012802  33005-3 -21807-2 0  9994
2 67885  97.2759 355.7998 0001067  91.0095   2.3784 15.98502682  2977
STARLINK-36390          
1 67886U 26035H   26063.83336806 -.01021051  33537-3 -21881-2 0  9993
2 67886  97.2756 355.8015 0001108  79.7614  17.8361 15.98588139  3022
STARLINK-36368          
1 67887U 26035J   26063.83336806 -.01022826  33678-3 -21809-2 0  9991
2 67887  97.2753 355.8031 0001362 105.4541 356.1426 15.98678852  2972
STARLINK-36801          
1 67888U 26035K   26063.56472074  .00164154  13111-4  32952-3 0  9991
2 67888  97.2754 355.5126 0001667 199.1410 160.9806 15.99766047  3024
STARLINK-36372          
1 67889U 26035L   26063.56346844  .00126822  87112-5  25259-3 0  9992
2 67889  97.2749 355.5139 0001492 181.2808 178.8467 15.99926499  3022
STARLINK-36363          
1 67890U 26035M   26063.75169183  .00185534  16130-4  37708-3 0  9992
2 67890  97.2751 355.7171 0002609 141.4078 218.7387 15.99534431  3052
STARLINK-36816          
1 67891U 26035N   26063.80408524  .00602052  16613-3  11135-2 0  9993
2 67891  97.2728 355.7956 0008784 178.6070 181.5235 16.01114946  3061
STARLINK-36813          
1 67892U 26035P   26063.68332457 -.00144220  10027-4 -27796-3 0  9996
2 67892  97.2736 355.6556 0001279 106.0282 254.1137 16.00321198  3042
STARLINK-36803          
1 67893U 26035Q   26063.68780907 -.00144253  99647-5 -28818-3 0  9992
2 67893  97.2751 355.6514 0001556 118.5950 241.5485 15.99686625  3044
STARLINK-36846          
1 67894U 26035R   26063.68618532 -.00137431  92778-5 -27117-3 0  9996
2 67894  97.2747 355.6537 0001499 123.3737 236.7685 15.99901887  3046
STARLINK-36866          
1 67895U 26035S   26063.68547821 -.00126643  82337-5 -24823-3 0  9993
2 67895  97.2748 355.6539 0001106 133.4710 226.6661 16.00011824  3046
STARLINK-36877          
1 67896U 26035T   26063.68696473 -.00137544  92794-5 -27302-3 0  9997
2 67896  97.2748 355.6525 0001540 117.7059 242.4375 15.99796314  3044
STARLINK-36870          
1 67897U 26035U   26063.55958101 -.00263452  27714-4 -51056-3 0  9993
2 67897  97.2760 355.5180 0000891  38.1993 321.9349 16.00269203  3023
STARLINK-36810          
1 67898U 26035V   26063.74658093  .00564158  14331-3  10901-2 0  9990
2 67898  97.2744 355.7232 0003862 144.1641 215.9897 16.00409377  3056
STARLINK-36878          
1 67899U 26035W   26063.55766655 -.00325919  40946-4 -62158-3 0  9990
2 67899  97.2744 355.5215 0000958 102.8484 257.2902 16.00563329  3026
